LEMUR-2-MARACHE-FRAN    
1 63262U 25052BE  26068.70885648  .00008220  00000+0  68460-3 0  9999
2 63262  97.6985 323.5335 0002324  45.7689 314.3725 14.98898773 53859
STARLINK-34629          
1 64790U 25150A   26068.58291766  .00001410  00000+0  12593-3 0  9993
2 64790  70.0042 134.6192 0003243 293.7349  66.3469 14.98326529 36503
